KUIPER-00027            
1 63740U 25088S   25256.25002315  .00005048  00000+0  47836-3 0  9998
2 63740  51.8923 160.3962 0004333 296.0638 244.4000 14.95089642  4910
KUIPER-00028            
1 63741U 25088T   25256.25002315 -.00049561  00000+0 -36768-2 0  9990
2 63741  51.8881 158.8994 0004378 261.5225 260.4386 15.02691124  5457
KUIPER-00029            
1 63742U 25088U   25256.25002315 -.00995315  00000+0 -68727-1 0  9997
2 63742  51.9050 157.9596 0004388 265.9541 274.4880 15.07969725  5796
KUIPER-00030            
1 63743U 25088V   25256.17564559 -.00005507  00000+0 -69228-3 0  9996
2 63743  51.9014 175.4976 0013353 207.1798 152.8467 14.79940382 21343
KUIPER-00031            
1 63744U 25088W   25256.25002315 -.00007440  00000+0 -76540-3 0  9996
2 63744  51.8913 161.4608 0004252 220.7794  12.8266 14.88629590  4543
KUIPER-00032            
1 63745U 25088X   25256.01589501  .00013018  00000+0  45291-3 0  9993
2 63745  51.8701 158.3378 0004779 193.4923 166.5934 15.30021537 22287
KUIPER-00033            
1 63746U 25088Y   25255.55008765  .00003281  00000+0  45881-3 0  9996
2 63746  51.8986 194.3225 0003089 336.7942  23.2881 14.79966373 21221
KUIPER-00034            
1 63747U 25088Z   25256.25002315 -.00016624  00000+0 -87858-3 0  9997
2 63747  51.8776 156.1240 0003056 161.8366 285.5022 15.14445684  4546
